start=new Date('2023-03-31T00:00:00.000Z').valueOf();
sats=[{"CENTER_NAME":"EARTH","OBJECT_ID":"2022-041AZ","TIME_SYSTEM":"UTC","OBJECT_NAME":"STARLINK-3745","EPOCH":"2023-03-30T18:07:25.568256","DECAY_DATE":null,"FILE":"3875726","CLASSIFICATION_TYPE":"U","PERIOD":"95.437","TLE_LINE2":"2 52308  53.2142 234.6882 0001326  66.8436 293.2695 15.08850600 53585","EPHEMERIS_TYPE":"0","REF_FRAME":"TEME","COUNTRY_CODE":"US","GP_ID":"229185089","MEAN_MOTION_DDOT":"0.0000000000000","RA_OF_ASC_NODE":"234.6882","MEAN_MOTION":"15.08850600","OBJECT_TYPE":"PAYLOAD","LAUNCH_DATE":"2022-04-21","NORAD_CAT_ID":"52308","APOAPSIS":"540.630","SEMIMAJOR_AXIS":"6917.848","ECCENTRICITY":"0.00013260","MEAN_MOTION_DOT":"0.00002451","RCS_SIZE":"LARGE","MEAN_ELEMENT_THEORY":"SGP4","SITE":"AFETR","INCLINATION":"53.2142","PERIAPSIS":"538.796","MEAN_ANOMALY":"293.2695","BSTAR":"0.00017201000000","ARG_OF_PERICENTER":"66.8436","REV_AT_EPOCH":"5358","ELEMENT_SET_NO":"999","TLE_LINE1":"1 52308U 22041AZ  23089.75515704  .00002451  00000-0  17201-3 0  9999"},{"MEAN_ANOMALY":"273.4116","PERIAPSIS":"538.951","ELEMENT_SET_NO":"999","REV_AT_EPOCH":"5357","ARG_OF_PERICENTER":"86.6998","TLE_LINE1":"1 52309U 22041BA  23089.69260307  .00042080  00000-0  26450-2 0  9996","BSTAR":"0.00264500000000","MEAN_MOTION_DOT":"0.00042080","RCS_SIZE":"LARGE","ECCENTRICITY":"0.00010670","SITE":"AFETR","INCLINATION":"53.2147","MEAN_ELEMENT_THEORY":"SGP4","RA_OF_ASC_NODE":"234.9692","MEAN_MOTION":"15.08858367","OBJECT_TYPE":"PAYLOAD","MEAN_MOTION_DDOT":"0.0000000000000","GP_ID":"229184359","LAUNCH_DATE":"2022-04-21","SEMIMAJOR_AXIS":"6917.824","NORAD_CAT_ID":"52309","APOAPSIS":"540.427","OBJECT_ID":"2022-041BA","OBJECT_NAME":"STARLINK-3756","TIME_SYSTEM":"UTC","CENTER_NAME":"EARTH","EPHEMERIS_TYPE":"0","TLE_LINE2":"2 52309  53.2147 234.9692 0001067  86.6998 273.4116 15.08858367 53573","REF_FRAME":"TEME","COUNTRY_CODE":"US","DECAY_DATE":null,"EPOCH":"2023-03-30T16:37:20.905248","CLASSIFICATION_TYPE":"U","PERIOD":"95.436","FILE":"3875726"},{"DECAY_DATE":null,"EPOCH":"2023-03-30T16:22:49.666656","PERIOD":"95.437","CLASSIFICATION_TYPE":"U","FILE":"3875726","EPHEMERIS_TYPE":"0","TLE_LINE2":"2 52310  53.2139 235.0178 0001209  62.6450 297.4665 15.08853212 53571","COUNTRY_CODE":"US","REF_FRAME":"TEME","CENTER_NAME":"EARTH","OBJECT_ID":"2022-041BB","OBJECT_NAME":"STARLINK-3688","TIME_SYSTEM":"UTC","LAUNCH_DATE":"2022-04-21","SEMIMAJOR_AXIS":"6917.840","APOAPSIS":"540.541","NORAD_CAT_ID":"52310","MEAN_MOTION_DDOT":"0.0000000000000","GP_ID":"229184110","RA_OF_ASC_NODE":"235.0178","MEAN_MOTION":"15.08853212","OBJECT_TYPE":"PAYLOAD","MEAN_ELEMENT_THEORY":"SGP4","SITE":"AFETR","INCLINATION":"53.2139","ECCENTRICITY":"0.00012090","MEAN_MOTION_DOT":"0.00033719","RCS_SIZE":"LARGE","BSTAR":"0.00212580000000","ELEMENT_SET_NO":"999","ARG_OF_PERICENTER":"62.6450","REV_AT_EPOCH":"5357","TLE_LINE1":"1 52310U 22041BB  23089.68251929  .00033719  00000-0  21258-2 0  9997","PERIAPSIS":"538.869","MEAN_ANOMALY":"297.4665"},{"MEAN_ELEMENT_THEORY":"SGP4","SITE":"AFETR","INCLINATION":"53.2158","ECCENTRICITY":"0.00014110","MEAN_MOTION_DOT":"0.00001882","RCS_SIZE":"LARGE","BSTAR":"0.00013628000000","REV_AT_EPOCH":"5357","ARG_OF_PERICENTER":"87.6529","ELEMENT_SET_NO":"999","TLE_LINE1":"1 52311U 22041BC  23089.68524397  .00001882  00000-0  13628-3 0  9999","PERIAPSIS":"538.759","MEAN_ANOMALY":"272.4624","EPOCH":"2023-03-30T16:26:45.079008","DECAY_DATE":null,"FILE":"3875726","PERIOD":"95.437","CLASSIFICATION_TYPE":"U","TLE_LINE2":"2 52311  53.2158 235.0039 0001411  87.6529 272.4624 15.08843221 53575","EPHEMERIS_TYPE":"0","COUNTRY_CODE":"US","REF_FRAME":"TEME","CENTER_NAME":"EARTH","OBJECT_ID":"2022-041BC","TIME_SYSTEM":"UTC","OBJECT_NAME":"STARLINK-3750","LAUNCH_DATE":"2022-04-21","APOAPSIS":"540.712","NORAD_CAT_ID":"52311","SEMIMAJOR_AXIS":"6917.871","GP_ID":"229185360","MEAN_MOTION_DDOT":"0.0000000000000","MEAN_MOTION":"15.08843221","RA_OF_ASC_NODE":"235.0039","OBJECT_TYPE":"PAYLOAD"},{"INCLINATION":"53.2168","SITE":"AFETR","MEAN_ELEMENT_THEORY":"SGP4","RCS_SIZE":"LARGE","MEAN_MOTION_DOT":"0.00001148","ECCENTRICITY":"0.00013960","TLE_LINE1":"1 52312U 22041BD  23089.64475584  .00001148  00000-0  90178-4 0  9990","ELEMENT_SET_NO":"999","ARG_OF_PERICENTER":"95.6618","REV_AT_EPOCH":"5357","BSTAR":"0.00009017800000","MEAN_ANOMALY":"264.4533","PERIAPSIS":"538.772","COUNTRY_CODE":"US","REF_FRAME":"TEME","EPHEMERIS_TYPE":"0","TLE_LINE2":"2 52312  53.2168 235.1305 0001396  95.6618 264.4533 15.08842487 53577","CLASSIFICATION_TYPE":"U","PERIOD":"95.437","FILE":"3875726","DECAY_DATE":null,"EPOCH":"2023-03-30T15:28:26.904576","OBJECT_NAME":"STARLINK-3752","TIME_SYSTEM":"UTC","OBJECT_ID":"2022-041BD","CENTER_NAME":"EARTH","SEMIMAJOR_AXIS":"6917.873","APOAPSIS":"540.704","NORAD_CAT_ID":"52312","LAUNCH_DATE":"2022-04-21","OBJECT_TYPE":"PAYLOAD","RA_OF_ASC_NODE":"235.1305","MEAN_MOTION":"15.08842487","MEAN_MOTION_DDOT":"0.0000000000000","GP_ID":"229185589"},{"FILE":"3875726","CLASSIFICATION_TYPE":"U","PERIOD":"95.438","EPOCH":"2023-03-30T13:58:22.658880","DECAY_DATE":null,"COUNTRY_CODE":"US","REF_FRAME":"TEME","TLE_LINE2":"2 52313  53.2149 235.4668 0001142  92.5437 267.5686 15.08835418 53564","EPHEMERIS_TYPE":"0","CENTER_NAME":"EARTH","TIME_SYSTEM":"UTC","OBJECT_NAME":"STARLINK-3749","OBJECT_ID":"2022-041BE","NORAD_CAT_ID":"52313","APOAPSIS":"540.549","SEMIMAJOR_AXIS":"6917.894","LAUNCH_DATE":"2022-04-21","GP_ID":"229183860","MEAN_MOTION_DDOT":"0.0000000000000","OBJECT_TYPE":"PAYLOAD","RA_OF_ASC_NODE":"235.4668","MEAN_MOTION":"15.08835418","MEAN_ELEMENT_THEORY":"SGP4","INCLINATION":"53.2149","SITE":"AFETR","ECCENTRICITY":"0.00011420","RCS_SIZE":"LARGE","MEAN_MOTION_DOT":"-0.00001956","BSTAR":"-0.00010485000000","TLE_LINE1":"1 52313U 22041BE  23089.58220670 -.00001956  00000-0 -10485-3 0  9999","REV_AT_EPOCH":"5356","ARG_OF_PERICENTER":"92.5437","ELEMENT_SET_NO":"999","PERIAPSIS":"538.969","MEAN_ANOMALY":"267.5686"},{"MEAN_ANOMALY":"255.9465","PERIAPSIS":"538.801","ELEMENT_SET_NO":"999","ARG_OF_PERICENTER":"104.1677","REV_AT_EPOCH":"5331","TLE_LINE1":"1 52331U 22045A   23089.43868102  .00013810  00000-0  88394-3 0  9999","BSTAR":"0.00088394000000","MEAN_MOTION_DOT":"0.00013810","RCS_SIZE":"LARGE","ECCENTRICITY":"0.00013460","SITE":"AFETR","INCLINATION":"53.2180","MEAN_ELEMENT_THEORY":"SGP4","RA_OF_ASC_NODE":"356.1098","MEAN_MOTION":"15.08844403","OBJECT_TYPE":"PAYLOAD","MEAN_MOTION_DDOT":"0.0000000000000","GP_ID":"229183861","LAUNCH_DATE":"2022-04-29","SEMIMAJOR_AXIS":"6917.867","NORAD_CAT_ID":"52331","APOAPSIS":"540.663","OBJECT_ID":"2022-045A","OBJECT_NAME":"STARLINK-3889","TIME_SYSTEM":"UTC","CENTER_NAME":"EARTH","EPHEMERIS_TYPE":"0","TLE_LINE2":"2 52331  53.2180 356.1098 0001346 104.1677 255.9465 15.08844403 53312","COUNTRY_CODE":"US","REF_FRAME":"TEME","DECAY_DATE":null,"EPOCH":"2023-03-30T10:31:42.040128","PERIOD":"95.437","CLASSIFICATION_TYPE":"U","FILE":"3875726"},{"EPHEMERIS_TYPE":"0","TLE_LINE2":"2 52332  53.2179 356.0623 0002017  75.4156 284.7060 15.08842845 53311","REF_FRAME":"TEME","COUNTRY_CODE":"US","DECAY_DATE":null,"EPOCH":"2023-03-30T10:47:35.966112","CLASSIFICATION_TYPE":"U","PERIOD":"95.437","FILE":"3875726","OBJECT_ID":"2022-045B","OBJECT_NAME":"STARLINK-3831","TIME_SYSTEM":"UTC","CENTER_NAME":"EARTH","LAUNCH_DATE":"2022-04-29","SEMIMAJOR_AXIS":"6917.872","NORAD_CAT_ID":"52332","APOAPSIS":"541.132","RA_OF_ASC_NODE":"356.0623","MEAN_MOTION":"15.08842845","OBJECT_TYPE":"PAYLOAD","MEAN_MOTION_DDOT":"0.0000000000000","GP_ID":"229184611","SITE":"AFETR","INCLINATION":"53.2179","MEAN_ELEMENT_THEORY":"SGP4","MEAN_MOTION_DOT":"0.00013150","RCS_SIZE":"LARGE","ECCENTRICITY":"0.00020170","ELEMENT_SET_NO":"999","REV_AT_EPOCH":"5331","ARG_OF_PERICENTER":"75.4156","TLE_LINE1":"1 52332U 22045B   23089.44972183  .00013150  00000-0  84272-3 0  9994","BSTAR":"0.00084272000000","MEAN_ANOMALY":"284.7060","PERIAPSIS":"538.341"},{"MEAN_ELEMENT_THEORY":"SGP4","INCLINATION":"53.2172","SITE":"AFETR","ECCENTRICITY":"0.00013580","RCS_SIZE":"LARGE","MEAN_MOTION_DOT":"0.00016141","BSTAR":"0.00102990000000","TLE_LINE1":"1 52333U 22045C   23089.44604352  .00016141  00000-0  10299-2 0  9995","ELEMENT_SET_NO":"999","ARG_OF_PERICENTER":"114.4193","REV_AT_EPOCH":"5330","PERIAPSIS":"538.807","MEAN_ANOMALY":"245.6941","PERIOD":"95.438","CLASSIFICATION_TYPE":"U","FILE":"3875726","DECAY_DATE":null,"EPOCH":"2023-03-30T10:42:18.160128","COUNTRY_CODE":"US","REF_FRAME":"TEME","EPHEMERIS_TYPE":"0","TLE_LINE2":"2 52333  53.2172 356.0817 0001358 114.4193 245.6941 15.08839557 53301","CENTER_NAME":"EARTH","OBJECT_NAME":"STARLINK-3847","TIME_SYSTEM":"UTC","OBJECT_ID":"2022-045C","SEMIMAJOR_AXIS":"6917.882","NORAD_CAT_ID":"52333","APOAPSIS":"540.686","LAUNCH_DATE":"2022-04-29","MEAN_MOTION_DDOT":"0.0000000000000","GP_ID":"229184862","OBJECT_TYPE":"PAYLOAD","MEAN_MOTION":"15.08839557","RA_OF_ASC_NODE":"356.0817"},{"PERIAPSIS":"537.791","MEAN_ANOMALY":"259.2208","BSTAR":"0.00087386000000","ELEMENT_SET_NO":"999","ARG_OF_PERICENTER":"100.9093","REV_AT_EPOCH":"5330","TLE_LINE1":"1 52334U 22045D   23089.43500018  .00013654  00000-0  87386-3 0  9997","ECCENTRICITY":"0.00027490","MEAN_MOTION_DOT":"0.00013654","RCS_SIZE":"LARGE","MEAN_ELEMENT_THEORY":"SGP4","SITE":"AFETR","INCLINATION":"53.2175","MEAN_MOTION_DDOT":"0.0000000000000","GP_ID":"229185091","RA_OF_ASC_NODE":"356.1264","MEAN_MOTION":"15.08857373","OBJECT_TYPE":"PAYLOAD","LAUNCH_DATE":"2022-04-29","SEMIMAJOR_AXIS":"6917.827","APOAPSIS":"541.594","NORAD_CAT_ID":"52334","CENTER_NAME":"EARTH","OBJECT_ID":"2022-045D","OBJECT_NAME":"STARLINK-3880","TIME_SYSTEM":"UTC","DECAY_DATE":null,"EPOCH":"2023-03-30T10:26:24.015552","CLASSIFICATION_TYPE":"U","PERIOD":"95.436","FILE":"3875726","EPHEMERIS_TYPE":"0","TLE_LINE2":"2 52334  53.2175 356.1264 0002749 100.9093 259.2208 15.08857373 53309","REF_FRAME":"TEME","COUNTRY_CODE":"US"}];
